ONEWEB-0210             
1 48787U 21045W   24121.84614703  .00000013  00000+0  91343-6 0  9998
2 48787  87.9045  53.8711 0001138  89.7311 270.3950 13.15552045142112
ONEWEB-0214             
1 48788U 21045X   24121.85567450  .00000011  00000+0 -58456-5 0  9992
2 48788  87.9043  53.8579 0001240  83.8238 276.3034 13.15550249142089
ONEWEB-0221             
1 48789U 21045Y   24121.86199634  .00000100  00000+0  23147-3 0  9994
2 48789  87.9045  53.8733 0001891  90.3076 269.8271 13.15552579142177
ONEWEB-0213             
1 48790U 21045Z   24121.85092258 -.00000003  00000+0 -41627-4 0  9997
2 48790  87.9045  53.8900 0001788  92.9814 267.1521 13.15550496142230
ONEWEB-0212             
1 48791U 21045AA  24121.82794960  .00000031  00000+0  48467-4 0  9992
2 48791  87.9048  53.8761 0002015  79.3442 280.7915 13.15549957142226
ONEWEB-0227             
1 48792U 21045AB  24121.82714762  .00000021  00000+0  21147-4 0  9990
2 48792  87.9047  53.8923 0001898  84.5333 275.6014 13.15550836142176
ONEWEB-0226             
1 48793U 21045AC  24121.82081571  .00000074  00000+0  16297-3 0  9993
2 48793  87.9047  53.9007 0001517  94.7427 265.3877 13.15550960142144
ONEWEB-0224             
1 48794U 21045AD  24121.86043277  .00000231  00000+0  58059-3 0  9996
2 48794  87.9049  53.9119 0002410  98.4506 261.6898 13.15551127142073
