<?xml version="1.0" encoding="UTF-8"?>
<ndm xmlns:xsi="http://www.w3.org/2001/XMLSchema-instance" xsi:noNamespaceSchemaLocation="https://sanaregistry.org/r/ndmxml_unqualified/ndmxml-2.0.0-master-2.0.xsd">
<omm id="CCSDS_OMM_VERS" version="2.0">
<header><CREATION_DATE/><ORIGINATOR/></header><body><segment><metadata><OBJECT_NAME>ONEWEB-0210</OBJECT_NAME><OBJECT_ID>2021-045W</OBJECT_ID><CENTER_NAME>EARTH</CENTER_NAME><REF_FRAME>TEME</REF_FRAME><TIME_SYSTEM>UTC</TIME_SYSTEM><MEAN_ELEMENT_THEORY>SGP4</MEAN_ELEMENT_THEORY></metadata><data><meanElements><EPOCH>2024-04-30T20:18:27.103392</EPOCH><MEAN_MOTION>13.15552045</MEAN_MOTION><ECCENTRICITY>.0001138</ECCENTRICITY><INCLINATION>87.9045</INCLINATION><RA_OF_ASC_NODE>53.8711</RA_OF_ASC_NODE><ARG_OF_PERICENTER>89.7311</ARG_OF_PERICENTER><MEAN_ANOMALY>270.3950</MEAN_ANOMALY></meanElements><tleParameters><EPHEMERIS_TYPE>0</EPHEMERIS_TYPE><CLASSIFICATION_TYPE>U</CLASSIFICATION_TYPE><NORAD_CAT_ID>48787</NORAD_CAT_ID><ELEMENT_SET_NO>999</ELEMENT_SET_NO><REV_AT_EPOCH>14211</REV_AT_EPOCH><BSTAR>.91343E-6</BSTAR><MEAN_MOTION_DOT>.13E-6</MEAN_MOTION_DOT><MEAN_MOTION_DDOT>0</MEAN_MOTION_DDOT></tleParameters></data></segment></body></omm>
<omm id="CCSDS_OMM_VERS" version="2.0">
<header><CREATION_DATE/><ORIGINATOR/></header><body><segment><metadata><OBJECT_NAME>ONEWEB-0214</OBJECT_NAME><OBJECT_ID>2021-045X</OBJECT_ID><CENTER_NAME>EARTH</CENTER_NAME><REF_FRAME>TEME</REF_FRAME><TIME_SYSTEM>UTC</TIME_SYSTEM><MEAN_ELEMENT_THEORY>SGP4</MEAN_ELEMENT_THEORY></metadata><data><meanElements><EPOCH>2024-04-30T20:32:10.276800</EPOCH><MEAN_MOTION>13.15550249</MEAN_MOTION><ECCENTRICITY>.000124</ECCENTRICITY><INCLINATION>87.9043</INCLINATION><RA_OF_ASC_NODE>53.8579</RA_OF_ASC_NODE><ARG_OF_PERICENTER>83.8238</ARG_OF_PERICENTER><MEAN_ANOMALY>276.3034</MEAN_ANOMALY></meanElements><tleParameters><EPHEMERIS_TYPE>0</EPHEMERIS_TYPE><CLASSIFICATION_TYPE>U</CLASSIFICATION_TYPE><NORAD_CAT_ID>48788</NORAD_CAT_ID><ELEMENT_SET_NO>999</ELEMENT_SET_NO><REV_AT_EPOCH>14208</REV_AT_EPOCH><BSTAR>-.58456E-5</BSTAR><MEAN_MOTION_DOT>.11E-6</MEAN_MOTION_DOT><MEAN_MOTION_DDOT>0</MEAN_MOTION_DDOT></tleParameters></data></segment></body></omm>
<omm id="CCSDS_OMM_VERS" version="2.0">
<header><CREATION_DATE/><ORIGINATOR/></header><body><segment><metadata><OBJECT_NAME>ONEWEB-0221</OBJECT_NAME><OBJECT_ID>2021-045Y</OBJECT_ID><CENTER_NAME>EARTH</CENTER_NAME><REF_FRAME>TEME</REF_FRAME><TIME_SYSTEM>UTC</TIME_SYSTEM><MEAN_ELEMENT_THEORY>SGP4</MEAN_ELEMENT_THEORY></metadata><data><meanElements><EPOCH>2024-04-30T20:41:16.483776</EPOCH><MEAN_MOTION>13.15552579</MEAN_MOTION><ECCENTRICITY>.0001891</ECCENTRICITY><INCLINATION>87.9045</INCLINATION><RA_OF_ASC_NODE>53.8733</RA_OF_ASC_NODE><ARG_OF_PERICENTER>90.3076</ARG_OF_PERICENTER><MEAN_ANOMALY>269.8271</MEAN_ANOMALY></meanElements><tleParameters><EPHEMERIS_TYPE>0</EPHEMERIS_TYPE><CLASSIFICATION_TYPE>U</CLASSIFICATION_TYPE><NORAD_CAT_ID>48789</NORAD_CAT_ID><ELEMENT_SET_NO>999</ELEMENT_SET_NO><REV_AT_EPOCH>14217</REV_AT_EPOCH><BSTAR>.23147E-3</BSTAR><MEAN_MOTION_DOT>.1E-5</MEAN_MOTION_DOT><MEAN_MOTION_DDOT>0</MEAN_MOTION_DDOT></tleParameters></data></segment></body></omm>
<omm id="CCSDS_OMM_VERS" version="2.0">
<header><CREATION_DATE/><ORIGINATOR/></header><body><segment><metadata><OBJECT_NAME>ONEWEB-0213</OBJECT_NAME><OBJECT_ID>2021-045Z</OBJECT_ID><CENTER_NAME>EARTH</CENTER_NAME><REF_FRAME>TEME</REF_FRAME><TIME_SYSTEM>UTC</TIME_SYSTEM><MEAN_ELEMENT_THEORY>SGP4</MEAN_ELEMENT_THEORY></metadata><data><meanElements><EPOCH>2024-04-30T20:25:19.710912</EPOCH><MEAN_MOTION>13.15550496</MEAN_MOTION><ECCENTRICITY>.0001788</ECCENTRICITY><INCLINATION>87.9045</INCLINATION><RA_OF_ASC_NODE>53.8900</RA_OF_ASC_NODE><ARG_OF_PERICENTER>92.9814</ARG_OF_PERICENTER><MEAN_ANOMALY>267.1521</MEAN_ANOMALY></meanElements><tleParameters><EPHEMERIS_TYPE>0</EPHEMERIS_TYPE><CLASSIFICATION_TYPE>U</CLASSIFICATION_TYPE><NORAD_CAT_ID>48790</NORAD_CAT_ID><ELEMENT_SET_NO>999</ELEMENT_SET_NO><REV_AT_EPOCH>14223</REV_AT_EPOCH><BSTAR>-.41627E-4</BSTAR><MEAN_MOTION_DOT>-.3E-7</MEAN_MOTION_DOT><MEAN_MOTION_DDOT>0</MEAN_MOTION_DDOT></tleParameters></data></segment></body></omm>
<omm id="CCSDS_OMM_VERS" version="2.0">
<header><CREATION_DATE/><ORIGINATOR/></header><body><segment><metadata><OBJECT_NAME>ONEWEB-0212</OBJECT_NAME><OBJECT_ID>2021-045AA</OBJECT_ID><CENTER_NAME>EARTH</CENTER_NAME><REF_FRAME>TEME</REF_FRAME><TIME_SYSTEM>UTC</TIME_SYSTEM><MEAN_ELEMENT_THEORY>SGP4</MEAN_ELEMENT_THEORY></metadata><data><meanElements><EPOCH>2024-04-30T19:52:14.845440</EPOCH><MEAN_MOTION>13.15549957</MEAN_MOTION><ECCENTRICITY>.0002015</ECCENTRICITY><INCLINATION>87.9048</INCLINATION><RA_OF_ASC_NODE>53.8761</RA_OF_ASC_NODE><ARG_OF_PERICENTER>79.3442</ARG_OF_PERICENTER><MEAN_ANOMALY>280.7915</MEAN_ANOMALY></meanElements><tleParameters><EPHEMERIS_TYPE>0</EPHEMERIS_TYPE><CLASSIFICATION_TYPE>U</CLASSIFICATION_TYPE><NORAD_CAT_ID>48791</NORAD_CAT_ID><ELEMENT_SET_NO>999</ELEMENT_SET_NO><REV_AT_EPOCH>14222</REV_AT_EPOCH><BSTAR>.48467E-4</BSTAR><MEAN_MOTION_DOT>.31E-6</MEAN_MOTION_DOT><MEAN_MOTION_DDOT>0</MEAN_MOTION_DDOT></tleParameters></data></segment></body></omm>
<omm id="CCSDS_OMM_VERS" version="2.0">
<header><CREATION_DATE/><ORIGINATOR/></header><body><segment><metadata><OBJECT_NAME>ONEWEB-0227</OBJECT_NAME><OBJECT_ID>2021-045AB</OBJECT_ID><CENTER_NAME>EARTH</CENTER_NAME><REF_FRAME>TEME</REF_FRAME><TIME_SYSTEM>UTC</TIME_SYSTEM><MEAN_ELEMENT_THEORY>SGP4</MEAN_ELEMENT_THEORY></metadata><data><meanElements><EPOCH>2024-04-30T19:51:05.554368</EPOCH><MEAN_MOTION>13.15550836</MEAN_MOTION><ECCENTRICITY>.0001898</ECCENTRICITY><INCLINATION>87.9047</INCLINATION><RA_OF_ASC_NODE>53.8923</RA_OF_ASC_NODE><ARG_OF_PERICENTER>84.5333</ARG_OF_PERICENTER><MEAN_ANOMALY>275.6014</MEAN_ANOMALY></meanElements><tleParameters><EPHEMERIS_TYPE>0</EPHEMERIS_TYPE><CLASSIFICATION_TYPE>U</CLASSIFICATION_TYPE><NORAD_CAT_ID>48792</NORAD_CAT_ID><ELEMENT_SET_NO>999</ELEMENT_SET_NO><REV_AT_EPOCH>14217</REV_AT_EPOCH><BSTAR>.21147E-4</BSTAR><MEAN_MOTION_DOT>.21E-6</MEAN_MOTION_DOT><MEAN_MOTION_DDOT>0</MEAN_MOTION_DDOT></tleParameters></data></segment></body></omm>
<omm id="CCSDS_OMM_VERS" version="2.0">
<header><CREATION_DATE/><ORIGINATOR/></header><body><segment><metadata><OBJECT_NAME>ONEWEB-0226</OBJECT_NAME><OBJECT_ID>2021-045AC</OBJECT_ID><CENTER_NAME>EARTH</CENTER_NAME><REF_FRAME>TEME</REF_FRAME><TIME_SYSTEM>UTC</TIME_SYSTEM><MEAN_ELEMENT_THEORY>SGP4</MEAN_ELEMENT_THEORY></metadata><data><meanElements><EPOCH>2024-04-30T19:41:58.477344</EPOCH><MEAN_MOTION>13.15550960</MEAN_MOTION><ECCENTRICITY>.0001517</ECCENTRICITY><INCLINATION>87.9047</INCLINATION><RA_OF_ASC_NODE>53.9007</RA_OF_ASC_NODE><ARG_OF_PERICENTER>94.7427</ARG_OF_PERICENTER><MEAN_ANOMALY>265.3877</MEAN_ANOMALY></meanElements><tleParameters><EPHEMERIS_TYPE>0</EPHEMERIS_TYPE><CLASSIFICATION_TYPE>U</CLASSIFICATION_TYPE><NORAD_CAT_ID>48793</NORAD_CAT_ID><ELEMENT_SET_NO>999</ELEMENT_SET_NO><REV_AT_EPOCH>14214</REV_AT_EPOCH><BSTAR>.16297E-3</BSTAR><MEAN_MOTION_DOT>.74E-6</MEAN_MOTION_DOT><MEAN_MOTION_DDOT>0</MEAN_MOTION_DDOT></tleParameters></data></segment></body></omm>
<omm id="CCSDS_OMM_VERS" version="2.0">
<header><CREATION_DATE/><ORIGINATOR/></header><body><segment><metadata><OBJECT_NAME>ONEWEB-0224</OBJECT_NAME><OBJECT_ID>2021-045AD</OBJECT_ID><CENTER_NAME>EARTH</CENTER_NAME><REF_FRAME>TEME</REF_FRAME><TIME_SYSTEM>UTC</TIME_SYSTEM><MEAN_ELEMENT_THEORY>SGP4</MEAN_ELEMENT_THEORY></metadata><data><meanElements><EPOCH>2024-04-30T20:39:01.391328</EPOCH><MEAN_MOTION>13.15551127</MEAN_MOTION><ECCENTRICITY>.000241</ECCENTRICITY><INCLINATION>87.9049</INCLINATION><RA_OF_ASC_NODE>53.9119</RA_OF_ASC_NODE><ARG_OF_PERICENTER>98.4506</ARG_OF_PERICENTER><MEAN_ANOMALY>261.6898</MEAN_ANOMALY></meanElements><tleParameters><EPHEMERIS_TYPE>0</EPHEMERIS_TYPE><CLASSIFICATION_TYPE>U</CLASSIFICATION_TYPE><NORAD_CAT_ID>48794</NORAD_CAT_ID><ELEMENT_SET_NO>999</ELEMENT_SET_NO><REV_AT_EPOCH>14207</REV_AT_EPOCH><BSTAR>.58059E-3</BSTAR><MEAN_MOTION_DOT>.231E-5</MEAN_MOTION_DOT><MEAN_MOTION_DDOT>0</MEAN_MOTION_DDOT></tleParameters></data></segment></body></omm>

</ndm>
